"spkid","full_name","pdes","name","prefix","neo","pha","H","G","M1","M2","K1","K2","PC","diameter","extent","albedo","rot_per","GM","BV","UB","IR","spec_B","spec_T","H_sigma","diameter_sigma","orbit_id","epoch","epoch_mjd","epoch_cal","equinox","e","a","q","i","om","w","ma","ad","n","tp","tp_cal","per","per_y","moid","moid_ld","moid_jup","t_jup","sigma_e","sigma_a","sigma_q","sigma_i","sigma_om","sigma_w","sigma_ma","sigma_ad","sigma_n","sigma_tp","sigma_per","class","producer","data_arc","first_obs","last_obs","n_obs_used","n_del_obs_used","n_dop_obs_used","condition_code","rms","two_body","A1","A2","A3","DT"
2164207,"164207 (2004 GU9)",164207,,,Y,Y,21.23,,,,,,,0.163,,0.219,,,,,,,,,0.008,"JPL 84",2459600.5,59600,20220121.0000000,J2000,.1360161873089896,1.00127997538767,.8650896907066,13.65046714085116,38.48717974238919,279.6914761576842,159.6245392648467,1.13747026006874,.9837183614204497,2459438.233496166164,20210811.7334962,365.9584024437386,1.0019395001882,.000440487,0.17142432579,4.00608,6.041,1.8262E-7,4.6346E-9,1.8022E-7,1.1132E-5,1.2858E-5,2.289E-5,3.1232E-5,5.265E-9,6.83E-9,3.1579E-5,2.5409E-6,APO,"Otto Matic",7655,2001-05-11,2022-04-26,278,,,0,.51455,,,-6.25507031030942E-14,,
2175706,"175706 (1996 FG3)",175706,,,Y,Y,18.44,,,,,,,1.196,,0.072,3.5942,,,,,C,,,0.362,"JPL 150",2459600.5,59600,20220121.0000000,J2000,.3497082421894382,1.05384249281258,.6853050871065567,1.990976584187957,299.6764380438137,24.07813728582002,202.3239755170742,1.422379898518602,.9110464385359615,2459773.571336227722,20220713.0713362,395.149999794209,1.08186173797182,.0283292,11.024874764,3.89164,5.780,1.7757E-6,2.7885E-6,5.9113E-8,1.0585E-5,.00096678,.0012874,.023291,3.7637E-6,3.616E-6,.026252,.0015684,APO,"Shantanu Naidu",13176,1985-12-17,2022-01-13,1697,6,1,0,.323,,,-2.00544423174116E-14,,
2185851,"185851 (2000 DP107)",185851,,,Y,Y,18.33,,,,,,,0.863,"0.992 x 0.938 x 0.964",0.137,2.7754,3.224e-8,,,,,,,0.043,"JPL 257",2459600.5,59600,20220121.0000000,J2000,.3765700207813397,1.365291675167802,.8511637606772728,8.671923899073754,358.6751169867201,289.7815624145807,164.2750027934171,1.879419589658332,.617825615772752,2459334.607815215871,20210430.1078152,582.6886920991875,1.59531469431674,.0153755,5.983683335,3.3336,4.749,1.0525E-8,2.7619E-10,1.436E-8,1.491E-6,2.3388E-6,3.5336E-6,7.1492E-7,3.8019E-10,1.8747E-10,1.093E-6,1.7681E-7,APO,"Otto Matic",8032,2000-02-29,2022-02-25,1409,21,2,0,.38976,,,9.615931956176568E-15,,
2192559,"192559 (1998 VO)",192559,,,Y,Y,20.3,,,,,,,,,,,,,,,,,,,"JPL 67",2459600.5,59600,20220121.0000000,J2000,.2265425537802045,1.074706488336227,.8312397359043828,10.06062324342637,228.1295302654464,75.97421172924943,17.48736123104327,1.318173240768072,.8846454896613923,2459580.732351336876,20220101.2323513,406.9426727510858,1.1141483169092,.0260286,10.129550262,3.86748,5.713,4.0055E-8,5.0761E-9,4.3732E-8,2.8099E-6,1.3626E-5,1.7844E-5,2.9844E-5,6.226E-9,6.2676E-9,3.361E-5,2.8831E-6,APO,"Otto Matic",7308,1998-11-10,2018-11-13,589,,,0,.35375,,,-3.232000784572915E-14,,
2203471,"203471 (2002 AU4)",203471,,,Y,N,19.38,,,,,,,,,,13.26,,,,,,,,,"JPL 101",2459600.5,59600,20220121.0000000,J2000,.3735692945649543,.8554173150881221,.5358596721320051,17.18357925961072,99.43550957242616,205.1929095270191,288.7624647374809,1.174974958044239,1.245767562930098,2459657.683649167237,20220319.1836492,288.9784665393477,0.791179922078981,.0889487,34.616165579,4.04389,6.801,1.4015E-7,7.0452E-9,1.2392E-7,1.0459E-5,1.0326E-5,1.9765E-5,3.0013E-5,9.6771E-9,1.539E-8,2.426E-5,3.57E-6,ATE,"Otto Matic",9899,1994-01-07,2021-02-13,415,,,0,.41674,,,-4.662737077901404E-14,,
2216523,"216523 (2001 HY7)",216523,,,Y,Y,20.69,,,,,,,,,,,,,,,,,,,"JPL 72",2459600.5,59600,20220121.0000000,J2000,.4120749216418478,.9138777309752577,.5372916365933987,5.21066066758503,205.0858351279892,211.2883854396307,41.57184435462636,1.290463825357117,1.128163206755026,2459563.650859640069,20211215.1508596,319.1027661994759,0.873655759615266,.0353269,13.748169673,4.06055,6.454,7.1206E-8,5.588E-9,6.4926E-8,7.7837E-6,5.4129E-5,4.9299E-5,3.4724E-5,7.8906E-9,1.0347E-8,3.053E-5,2.9268E-6,ATE,"Otto Matic",7689,2001-04-15,2022-05-04,298,,,0,.48489,,,4.726667570729195E-14,,
2216985,"216985 (2000 QK130)",216985,,,Y,Y,21.1,,,,,,,,,,,,,,,,,,,"JPL 60",2459600.5,59600,20220121.0000000,J2000,.2617327099956977,1.18060001943105,.8715983769243876,4.722734193129957,173.8733684626303,66.28522037969067,309.7526941072572,1.489601661937711,.7683337222671577,2459665.897761983524,20220327.3977620,468.5464005637178,1.28281013159129,.000287091,0.11172720447,3.51343,5.324,3.7072E-8,8.7925E-9,4.5209E-8,4.3689E-6,4.0393E-5,4.8462E-5,3.3774E-5,1.1094E-8,8.5832E-9,4.4329E-5,5.2342E-6,APO,"Otto Matic",6641,2000-08-09,2018-10-15,243,,,0,.36443,,,1.019060195350716E-13,,
2230111,"230111 (2001 BE10)",230111,,,Y,Y,19.1,,,,,,,,,0.253,4.194,,,,,,,,,123,2459600.5,59600,20220121.0000000,J2000,.3692267081642812,.8230664881607598,.5191683581368272,17.5075670029775,297.7723949093753,30.57643993974256,162.27362774366,1.126964618184692,1.319932416179993,2459477.559138972210,20210920.0591390,272.7412370414187,0.746724810517231,.0413987,16.111132079,4.19168,7.027,1.8292E-7,5.7473E-9,1.5282E-7,1.4149E-5,4.8508E-6,1.6235E-5,3.6272E-5,7.8694E-9,1.3825E-8,2.6836E-5,2.8567E-6,ATE,"Otto Matic",6596,2001-01-18,2019-02-09,731,2,1,0,.31045,,,-2.554638561307127E-14,,
2234341,"234341 (2001 FZ57)",234341,,,Y,N,18.93,,,,,,,0.344,,0.493,,,,,,,,,0.055,"JPL 100",2459600.5,59600,20220121.0000000,J2000,.6042746312784872,.9441729073159847,.3736331718844808,20.66937911089,22.09217122439854,339.9780334339982,101.8842505312848,1.514712642747489,1.074302960064248,2459505.662459456323,20211018.1624595,335.1010035181048,0.9174565462508,.157686,61.36666062,3.95546,6.146,1.1528E-7,7.6135E-9,1.0696E-7,1.0317E-5,1.4893E-5,1.8339E-5,3.0876E-5,1.2214E-8,1.2994E-8,2.8127E-5,4.0532E-6,ATE,"Otto Matic",11333,1991-04-18,2022-04-28,332,,,0,.44125,,,-2.786646243307646E-14,,
2242191,"242191 (2003 NZ6)",242191,,,Y,N,18.97,,,,,,,0.370,,0.334,13.531,,,,,,,,0.031,93,2459600.5,59600,20220121.0000000,J2000,.4922936380692524,.7933841837486876,.4028061975444419,18.2447401722324,124.60017039821,311.6099366913986,339.3830233349258,1.183962169952933,1.394693465625435,2459615.282443005014,20220204.7824430,258.1212351479413,0.706697426825301,.0651175,25.341777475,4.09608,7.204,4.2801E-8,5.7153E-9,3.35E-8,8.3302E-6,1.1721E-5,1.2017E-5,2.6265E-5,8.5289E-9,1.507E-8,1.8979E-5,2.7891E-6,ATE,"Otto Matic",6202,2003-07-09,2020-07-01,522,2,1,0,.34053,,,3.182249350657611E-14,,
2251732,"251732 (1998 HG49)",251732,,,Y,N,21.60,,,,,,,,,,,,,,,,,,,44,2459600.5,59600,20220121.0000000,J2000,.1124615708973507,1.200521585072363,1.065509041718947,4.195072539726214,44.81129560763402,324.316006580591,219.3876781304436,1.335534128425778,.7492885816108474,2459788.161103239106,20220727.6611032,480.4557400648747,1.31541612611875,.0774237,30.130981329,3.88564,5.286,8.4479E-8,1.472E-8,1.0401E-7,4.3728E-6,5.8694E-5,7.2188E-5,6.7495E-5,1.6376E-8,1.3781E-8,9.3254E-5,8.8368E-6,AMO,"Otto Matic",7646,1998-04-27,2019-04-03,127,,,0,.52341,,,-1.038800683011722E-13,,
2256004,"256004 (2006 UP)",256004,,,Y,N,23.0,,,,,,,,,,,,,,,,,,,59,2459600.5,59600,20220121.0000000,J2000,.3005064062864375,1.583912772187783,1.107936837146444,2.285288202481695,47.88890806808568,335.1799535750469,233.2150363189737,2.059888707229123,.4944326965091539,2459856.925120296791,20221004.4251203,728.1071873719318,1.99344883606278,.113264,44.07895088,3.39853,4.337,1.5548E-7,1.0293E-8,2.4294E-7,6.7173E-6,3.6117E-5,6.6718E-5,2.9507E-5,1.3386E-8,4.8194E-9,5.9596E-5,7.0971E-6,AMO,"Otto Matic",5138,2002-11-14,2016-12-08,167,,,0,.62356,,,-1.971147645338287E-13,,
2264357,"264357 (2000 AZ93)",264357,,,Y,Y,21.07,,,,,,,0.113,,0.037,,,,,,,,,0.029,"JPL 46",2459600.5,59600,20220121.0000000,J2000,.3599317761841739,.746936323274026,.4780902057415295,8.587967096293687,277.3568047131195,8.146028177719108,224.1036340268028,1.015782440806523,1.526787882838502,2459689.508019712960,20220420.0080197,235.7891387837793,0.64555547921637,.0217905,8.480208885,4.11557,7.665,7.1672E-8,3.1357E-9,5.2082E-8,7.9847E-6,1.2492E-5,2.2287E-5,3.3658E-5,4.2644E-9,9.6145E-9,2.2434E-5,1.4848E-6,ATE,"Otto Matic",8000,2000-01-07,2021-12-02,155,4,1,0,.41447,,,-4.76985030625543E-14,,
2267759,"267759 (2003 MC7)",267759,,,Y,N,18.91,,,,,,,,,,,,,,,,,,,"JPL 139",2459600.5,59600,20220121.0000000,J2000,.1843774139259753,1.373770358694476,1.120478132630229,21.21194082631008,137.0310846967313,101.212578294585,228.5201366277692,1.627062584758723,.6121147737639784,2459815.296095450765,20220823.7960955,588.1249978436401,1.61019848827828,.237155,92.29361135,3.49936,4.729,3.5814E-8,3.689E-9,5.1019E-8,5.2687E-6,8.1804E-6,1.4823E-5,1.1937E-5,4.3691E-9,2.4656E-9,1.9957E-5,2.3689E-6,AMO,"Otto Matic",25137,1953-04-13,2022-02-07,583,,,0,.4854,,,-2.922469913794669E-14,,
2277810,"277810 (2006 FV35)",277810,,,Y,N,21.74,,,,,,,,,,,,,,,,,,,"JPL 81",2459600.5,59600,20220121.0000000,J2000,.3775149344161703,1.001450554848664,.623388014313933,7.104032269725134,179.4850145283121,170.8161139963204,139.689707652606,1.379513095383394,.9834670334822245,2459458.461982560821,20210831.9619826,366.0519242066762,1.00219554882047,.104661,40.73092137,4.04883,6.002,2.3749E-6,1.1824E-8,2.3714E-6,5.7312E-5,1.7533E-5,8.7972E-5,.0001801,1.6288E-8,1.7418E-8,.0001835,6.4831E-6,APO,"Otto Matic",9868,1995-04-01,2022-04-07,218,,,1,.50832,,,4.200919281923131E-14,,
2283457,"283457 (2001 MQ3)",283457,,,Y,N,19.01,,,,,,,,,,,,,,,,,,,"JPL 111",2459600.5,59600,20220121.0000000,J2000,.4552137748871774,2.233334861028506,1.21669006835259,5.56820461343599,313.3331844852246,25.18815799760006,38.5086416402721,3.249979653704422,.2953067039722675,2459470.097807559802,20210912.5978076,1219.071545472967,3.33763599034351,.212299,82.62040183,2.16883,3.491,4.3502E-8,4.3182E-9,9.613E-8,5.1276E-6,2.9944E-5,3.2765E-5,5.4349E-6,6.284E-9,8.5648E-10,1.8358E-5,3.5357E-6,AMO,"Otto Matic",25573,1951-11-05,2021-11-10,449,,,0,.49261,,,-5.530498214338077E-14,,
